{
  "norad_id": 48984,
  "name": "ONEWEB-0266",
  "history": [
    {
      "epoch": "2026-03-28T21:02:42.720576",
      "apogee_km": 1199.0337605708337,
      "perigee_km": 1196.4894707797448,
      "latitude_deg": 58.94351944223998,
      "longitude_deg": -117.41919936006889,
      "semi_major_axis_km": 7575.898615675289,
      "eccentricity": 0.00016792,
      "inclination_deg": 87.9032,
      "raan_deg": 244.7374,
      "arg_perigee_deg": 96.6278,
      "mean_anomaly_deg": 263.5044,
      "mean_motion_rev_day": 13.16592967
    },
    {
      "epoch": "2026-03-29T04:20:27.281184",
      "apogee_km": 1199.03807018333,
      "perigee_km": 1196.4849923782886,
      "latitude_deg": -51.65083692179617,
      "longitude_deg": -88.23635424021631,
      "semi_major_axis_km": 7575.898531280809,
      "eccentricity": 0.0001685,
      "inclination_deg": 87.9032,
      "raan_deg": 244.6768,
      "arg_perigee_deg": 96.699,
      "mean_anomaly_deg": 263.4332,
      "mean_motion_rev_day": 13.16592989
    }
  ]
}